ONEWEB-0228             
1 48780U 21045P   23218.43745940 -.00000385  00000+0 -10579-2 0  9992
2 48780  87.8997 107.4329 0001674  81.8816 278.2504 13.15547474107965
